ONEWEB-0220             
1 48232U 21031Y   24071.46786285 -.00000212  00000+0 -60577-3 0  9990
2 48232  87.8889  94.4490 0001872 104.9342 255.1995 13.14502083139668
ONEWEB-0165             
1 48233U 21031Z   24071.80088032  .00000060  00000+0  12781-3 0  9997
2 48233  87.8895  94.3927 0001750  98.1849 261.9479 13.14502244139662
ONEWEB-0199             
1 48234U 21031AA  24072.47008156 -.00000193  00000+0 -55643-3 0  9994
2 48234  87.8896  94.2299 0001895  96.5209 263.6136 13.14501914139658
ONEWEB-0203             
1 48235U 21031AB  24072.07997498 -.00000122  00000+0 -36465-3 0  9990
2 48235  87.8896  94.3089 0001784  76.7878 283.3451 13.14501805139610
ONEWEB-0197             
1 48236U 21031AC  24072.05539182  .00000237  00000+0  60592-3 0  9994
2 48236  87.8896  94.3216 0002313  95.6851 264.4543 13.14501239139526
ONEWEB-0194             
1 48237U 21031AD  24072.11009973  .00000122  00000+0  29388-3 0  9993
2 48237  87.8894  94.3026 0001969  82.2515 277.8839 13.14501178139707
ONEWEB-0193             
1 48238U 21031AE  24072.50655319  .00000232  00000+0  59023-3 0  9999
2 48238  87.8896  94.2320 0001735  91.2736 268.8593 13.14501634139706
ONEWEB-0191             
1 48239U 21031AF  24072.13705715  .00000124  00000+0  30111-3 0  9992
2 48239  87.8894  94.2923 0001846  91.0508 269.0833 13.14500579139518
